#dP2019  1 11  0  0  0.00000000      96 __u+U ITR00 FIT  IAC
## 2035 432000.00000000   900.00000000 58494 0.0000000000000
+   91   C01C02C03C04C05C06C07C08C09C10C11C12C13C14E01E02E03
+        E04E05E07E08E09E11E12E13E14E15E18E19E21E24E25E26E27
+        E30E31E33E36G01G02G03G05G06G07G08G09G10G11G12G13G14
+        G15G16G17G18G19G20G21G22G23G24G25G26G28G29G30G31G32
+        R01R02R03R04R05R07R08R09R10R11R13R14R15R16R17R18R19
+        R20R21R22R23R24R26  0  0  0  0  0  0  0  0  0  0  0
++        12 12 13 13 12  8 10  8  8  9  8  9  8  8  5  6  6
++         5  5  6  6  6  5  5  7  5  7  5  5  6  5  5  6  6
++         6  6  6  7  4  4  4  4  4  3  3  3  4  4  4  4  4
++         4  4  4  4  4  4  4  4  3  4  4  4  4  4  3  4  4
++         5  6  6  6  5  5  5  5  5  5  5  5  6  6  5  6  6
++         5  5  5  5  6  9  0  0  0  0  0  0  0  0  0  0  0
%c M  cc GPS ccc cccc cccc cccc cccc ccccc ccccc ccccc ccccc
%c cc cc ccc ccc cccc cccc cccc cccc ccccc ccccc ccccc ccccc
%f  0.0000000  0.000000000  0.00000000000  0.000000000000000
%f  0.0000000  0.000000000  0.00000000000  0.000000000000000
%i    0    0    0    0      0      0      0      0         0
%i    0    0    0    0      0      0      0      0         0
/*                                                          
/*   RSA / INFORMATION & ANALYSIS CENTER (IAC) OF MCC       
/*   ULTRA-RAPID DETERMINATION                              
/* PCV:IGS14_2035 OL/AL:FES2004  NONE     YN ORB:CoN CLK:CoN
*  2019 01 11 12 15  0.00000000
PC01 -32305.373561  27093.629166    935.447727     74.702474
PC02   4289.062848  41931.529184  -1024.641035   -237.233393
PC03 -14764.468929  39455.912095    228.529055   -133.618419
PC04 -39648.419713  14401.859957    467.162514   -218.746247
PC05  21891.019556  35991.694435  -1301.095510    -50.835877
PC06  -8055.103251  33501.758410 -23794.113108    260.403397
PC07 -17339.366047  21748.093514  31708.672776    205.755057
PC08 -22913.631666  34065.089390 -10142.766271     86.377394
PC09   1620.778847  40306.567847 -11474.254516    440.771501
PC10   -195.091521  25994.883752  33360.646125   -398.655563
PC11 -14810.170078  15917.044663  17592.850757    -86.958894
PC12 -11488.105850 -14548.023951  20900.405851    338.306812
PC13 -13080.646679  34770.742251 -20130.150943   -478.706802
PC14 -22345.606024  -3596.691014 -16305.259403    694.700343
PE01  27068.419713  -5938.664856 -10394.507923   -518.475781
PE02 -27058.382707   5966.322274  10434.976517     42.875690
PE03 -16268.559168   5830.691967 -24036.297457   -120.974436
PE04   2705.644397 -22940.864809  18507.686674   -197.814465
PE05 -20393.626986 -14823.895637 -15514.161649    126.914677
PE07  12569.226060  26724.887927  -2053.672714   -110.570378
PE08  -2349.787979  22959.515117 -18543.525175   6425.547634
PE09 -12805.338452 -26599.578900   2061.243190   6561.468268
PE11  -2678.586410 -21503.090649  20174.016162   5719.555041
PE12  13009.695494 -26315.920809   3864.299145   5918.566703
PE13   2599.945575  21548.021311 -20114.035544    381.593487
PE14   -352.199555 -28000.654655  -1427.189607   6461.502221
PE15 -12654.604740  26425.357151  -4201.718093    923.253151
PE18  11842.596727  23554.824055 -13302.491697   5614.397148
PE19  17084.722074  -3666.605840  23888.483991     -9.213363
PE21  27429.762822   6671.484575   8899.853545   -513.903343
PE24 -12037.959989 -15203.721735 -22377.928772   6291.583918
PE25 -27417.533970  -6688.587118  -8926.920285   1927.063955
PE26  16436.658504   4384.200409 -24212.178666   5032.073135
PE27  11500.483271  15218.813712  22637.171942    551.902257
PE30 -10703.575558  14930.364428  23207.278518   5197.180266
PE31  11139.447452 -14820.310968 -23066.344063    935.389833
PE33  20547.747167 -15881.724383 -14192.729659    847.894363
PE36 -16400.220549  -4033.375907  24320.537111    760.924184
PG01  -8897.479910  19632.101566 -15479.731017   -143.565808
PG02  21606.457423 -14557.000066  -3980.335694   -110.225115
PG03    996.279764  16332.807846 -20972.015780    176.459835
PG05  19152.366075  -5780.190223  17447.511640      0.765504
PG06  21528.227260  -3253.161667 -15189.451281    299.023989
PG07   6173.485094  14380.809913  21657.935300     53.715032
PG08  -7109.400708  21147.119763  14320.548729   -128.692745
PG09   8077.792997  24365.100121   6759.783395    473.020759
PG10 -24217.189273 -11117.335248   1039.835121    137.408583
PG11  -7672.415444  24865.353680  -6418.229623   -676.814098
PG12   2638.776744 -15025.041081 -21961.370045    277.238351
PG13  12581.185597 -14543.115163  18188.301019    -78.680068
PG14 -15101.271596  -2438.760648 -21424.081338    -93.325829
PG15   3971.193326 -23235.094906  11590.244497   -332.686358
PG16 -19233.106616   3309.550196  18051.127500    -12.072544
PG17  13278.561838  12971.140952 -18628.432397     -6.249800
PG18 -16371.558699  19801.430156  -6896.025209     14.693887
PG19  14874.309332   2313.966203 -22166.384899   -364.492024
PG20 -19903.967312 -14118.493202  10529.951148    521.000066
PG21  -9475.974164 -12788.459942  22074.601891   -271.079339
PG22  -7405.355379  14116.487610 -21008.839894   -620.235606
PG23   1476.473960  26105.464448  -2837.135313   -200.860653
PG24  12100.515305 -20657.700887 -11290.706158    -60.646074
PG25  -9835.698788 -17461.040550 -17752.339520   -704.355783
PG26 -24467.767758  -1926.867956  10357.802126     93.360297
PG28  22194.356439  14290.652242   3077.384572    761.591217
PG29  -3951.361677 -25984.883894   3804.932575    295.681596
PG30  16406.397549   6402.990508  19943.231410    -34.150875
PG31 -22977.780243   5365.534430 -12611.903570     66.523681
PG32 -15115.085499  -9782.882558 -19522.072391   -279.628766
PR01 -16100.348734  -4540.647336 -19256.562089     37.766544
PR02  -2758.749805  12900.697851 -21790.166321    348.850467
PR03  10817.103894  20707.574414 -10154.692114    154.207002
PR04  18164.662698  16102.191354   7819.205958    290.891201
PR05  14868.167783   2811.922062  20531.665636     19.715297
PR07 -11100.870761 -20809.227842   9792.641265    -55.631797
PR08 -18033.769069 -16601.507244  -7031.086901     19.602685
PR09  13881.199406 -11206.475702 -18246.490654     48.428856
PR10  -3162.742664 -10317.936138 -23129.095521     39.403032
PR11 -20442.734742  -3827.955637 -14726.637199    -53.164995
PR13 -14769.008749  11026.115425  17617.571384    -18.882581
PR14   3378.602469  10521.738018  23001.803685     34.824282
PR15  19850.127388   4148.186622  15488.442189     99.247404
PR16  24933.085247  -4992.177771   -923.221095    -11.667836
PR17  -2673.940559  22432.414485 -11865.731460    195.287055
PR18   7002.308472  10122.260800 -22311.635991     29.697684
PR19  13012.226370  -7415.036235 -20640.314188    -62.248519
PR20  11648.115295 -22014.549858  -5604.876400   -365.264336
PR21   2361.039835 -22156.869954  12400.275582    -24.972685
PR22  -8062.313964  -7878.065164  22905.764934    -64.318926
PR23 -13379.466896  12224.832744  17949.390174    202.545692
PR24 -10739.651740  22753.403505   4137.987233   -175.926461
PR26  11798.050418 -21293.292967  -7560.951409     15.502460
EOF
